LEMUR-2-ALISIA          
1 62706U 25009DB  26117.18393203  .00011301  00000+0  86718-3 0  9991
2 62706  97.6918 199.7267 0003080  42.1305 318.0155 15.01950874 92509
LEMUR-2-ROUNDTRIPPER    
1 62711U 25009DG  26117.17605285  .00011909  00000+0  88938-3 0  9992
2 62711  97.7240 199.9641 0002910 315.5474  44.5517 15.02969005 69961
LEMUR-2-MYNAMEISJEFF    
1 62712U 25009DH  26117.17451247  .00011596  00000+0  86628-3 0  9996
2 62712  97.7290 200.3125 0002105  15.2084 344.9204 15.02964840 69960
LEMUR-2-LEIA-PHILIP     
1 63246U 25052AN  26117.21118030  .00002207  00000+0  19590-3 0  9995
2 63246  97.6896  10.0116 0005088  50.6566 309.5106 14.97169383 61042
LEMUR-2-LIA-MARTIN      
1 63248U 25052AQ  26117.22735061  .00006131  00000+0  53292-3 0  9994
2 63248  97.6943  10.4384 0003465  22.6431 337.4943 14.97336078 61052
LEMUR-2-DELOITTE-1      
1 63259U 25052BB  26117.26525314  .00005080  00000+0  44370-3 0  9997
2 63259  97.6990  10.7996 0000846  60.9722 299.1585 14.97233741 61077
LEMUR-2-EMERSONROSE     
1 63261U 25052BD  26117.22387463  .00004723  00000+0  39766-3 0  9993
2 63261  97.6946  11.2148 0000890 196.8315 163.2878 14.98695146 61104
LEMUR-2-MARACHE-FRAN    
1 63262U 25052BE  26117.23006803  .00007202  00000+0  59097-3 0  9995
2 63262  97.6927  11.4660 0002919 183.7686 176.3516 14.99517491 61128
LEMUR-2-THEFALCONER     
1 63264U 25052BG  26117.28460677  .00004599  00000+0  40432-3 0  9994
2 63264  97.6914  10.4931 0002347 136.3530 223.7877 14.97027012 61077
LEMUR-2-UNTITLED-SC     
1 63351U 25061A   26117.24002093  .00004504  00000+0  25682-3 0  9997
2 63351  97.5606  92.9987 0020834  81.7341 278.6251 15.13103678 59884
LEMUR-2-ESPERANZA       
1 63352U 25061B   26116.88960602  .00004498  00000+0  25598-3 0  9994
2 63352  97.5612  92.7328 0020346  82.2369 278.1171 15.13186313 59831
LEMUR-2-KREMPEL-BRO2    
1 63353U 25061C   26117.19559284  .00005023  00000+0  28186-3 0  9991
2 63353  97.5661  93.5048 0021280  74.4782 285.8797 15.13616300 59893
LEMUR-2-THERMORAPTOR    
1 63354U 25061D   26117.18016368  .00004842  00000+0  27135-3 0  9993
2 63354  97.5667  93.5557 0021032  73.7051 286.6492 15.13685376 59891
LEMUR-2-NEUROSPICY      
1 63355U 25061E   26116.89125213  .00004927  00000+0  27549-3 0  9994
2 63355  97.5592  92.9349 0018825  77.9964 282.3376 15.13795194 59856
LEMUR-2-TILLINFINITY    
1 63356U 25061F   26116.88035132  .00005388  00000+0  29590-3 0  9994
2 63356  97.5579  93.1785 0019931  67.2209 293.1125 15.14379022 59875
LEMUR-2-KREMPEL-BRO1    
1 63357U 25061G   26117.17768468  .00004714  00000+0  26058-3 0  9991
2 63357  97.5578  93.4039 0020632  67.3683 292.9728 15.14195763 59916
