[{"OBJECT_NAME":"LEMUR-2-ALISIA","OBJECT_ID":"2025-009DB","EPOCH":"2026-04-27T04:24:51.727392","MEAN_MOTION":15.01950874,"ECCENTRICITY":0.00030801,"INCLINATION":97.6918,"RA_OF_ASC_NODE":199.7267,"ARG_OF_PERICENTER":42.1305,"MEAN_ANOMALY":318.0155,"EPHEMERIS_TYPE":0,"CLASSIFICATION_TYPE":"U","NORAD_CAT_ID":62706,"ELEMENT_SET_NO":999,"REV_AT_EPOCH":9250,"BSTAR":0.00086717831,"MEAN_MOTION_DOT":0.00011301,"MEAN_MOTION_DDOT":0},{"OBJECT_NAME":"LEMUR-2-ROUNDTRIPPER","OBJECT_ID":"2025-009DG","EPOCH":"2026-04-27T04:13:30.966240","MEAN_MOTION":15.02969005,"ECCENTRICITY":0.00029101,"INCLINATION":97.724,"RA_OF_ASC_NODE":199.9641,"ARG_OF_PERICENTER":315.5474,"MEAN_ANOMALY":44.5517,"EPHEMERIS_TYPE":0,"CLASSIFICATION_TYPE":"U","NORAD_CAT_ID":62711,"ELEMENT_SET_NO":999,"REV_AT_EPOCH":6996,"BSTAR":0.00088938112,"MEAN_MOTION_DOT":0.00011909,"MEAN_MOTION_DDOT":0},{"OBJECT_NAME":"LEMUR-2-MYNAMEISJEFF","OBJECT_ID":"2025-009DH","EPOCH":"2026-04-27T04:11:17.877408","MEAN_MOTION":15.0296484,"ECCENTRICITY":0.00021052,"INCLINATION":97.729,"RA_OF_ASC_NODE":200.3125,"ARG_OF_PERICENTER":15.2084,"MEAN_ANOMALY":344.9204,"EPHEMERIS_TYPE":0,"CLASSIFICATION_TYPE":"U","NORAD_CAT_ID":62712,"ELEMENT_SET_NO":999,"REV_AT_EPOCH":6996,"BSTAR":0.0008662847,"MEAN_MOTION_DOT":0.00011596,"MEAN_MOTION_DDOT":0},{"OBJECT_NAME":"LEMUR-2-LEIA-PHILIP","OBJECT_ID":"2025-052AN","EPOCH":"2026-04-27T05:04:05.977920","MEAN_MOTION":14.97169383,"ECCENTRICITY":0.00050881,"INCLINATION":97.6896,"RA_OF_ASC_NODE":10.0116,"ARG_OF_PERICENTER":50.6566,"MEAN_ANOMALY":309.5106,"EPHEMERIS_TYPE":0,"CLASSIFICATION_TYPE":"U","NORAD_CAT_ID":63246,"ELEMENT_SET_NO":999,"REV_AT_EPOCH":6104,"BSTAR":0.00019590186,"MEAN_MOTION_DOT":2.207e-5,"MEAN_MOTION_DDOT":0},{"OBJECT_NAME":"LEMUR-2-LIA-MARTIN","OBJECT_ID":"2025-052AQ","EPOCH":"2026-04-27T05:27:23.092704","MEAN_MOTION":14.97336078,"ECCENTRICITY":0.00034659,"INCLINATION":97.6943,"RA_OF_ASC_NODE":10.4384,"ARG_OF_PERICENTER":22.6431,"MEAN_ANOMALY":337.4943,"EPHEMERIS_TYPE":0,"CLASSIFICATION_TYPE":"U","NORAD_CAT_ID":63248,"ELEMENT_SET_NO":999,"REV_AT_EPOCH":6105,"BSTAR":0.00053292095,"MEAN_MOTION_DOT":6.131e-5,"MEAN_MOTION_DDOT":0},{"OBJECT_NAME":"LEMUR-2-DELOITTE-1","OBJECT_ID":"2025-052BB","EPOCH":"2026-04-27T06:21:57.871296","MEAN_MOTION":14.97233741,"ECCENTRICITY":8.46e-5,"INCLINATION":97.699,"RA_OF_ASC_NODE":10.7996,"ARG_OF_PERICENTER":60.9722,"MEAN_ANOMALY":299.1585,"EPHEMERIS_TYPE":0,"CLASSIFICATION_TYPE":"U","NORAD_CAT_ID":63259,"ELEMENT_SET_NO":999,"REV_AT_EPOCH":6107,"BSTAR":0.00044369916,"MEAN_MOTION_DOT":5.08e-5,"MEAN_MOTION_DDOT":0},{"OBJECT_NAME":"LEMUR-2-EMERSONROSE","OBJECT_ID":"2025-052BD","EPOCH":"2026-04-27T05:22:22.768032","MEAN_MOTION":14.98695146,"ECCENTRICITY":8.909e-5,"INCLINATION":97.6946,"RA_OF_ASC_NODE":11.2148,"ARG_OF_PERICENTER":196.8315,"MEAN_ANOMALY":163.2878,"EPHEMERIS_TYPE":0,"CLASSIFICATION_TYPE":"U","NORAD_CAT_ID":63261,"ELEMENT_SET_NO":999,"REV_AT_EPOCH":6110,"BSTAR":0.00039766194,"MEAN_MOTION_DOT":4.723e-5,"MEAN_MOTION_DDOT":0},{"OBJECT_NAME":"LEMUR-2-MARACHE-FRAN","OBJECT_ID":"2025-052BE","EPOCH":"2026-04-27T05:31:17.877792","MEAN_MOTION":14.99517491,"ECCENTRICITY":0.00029193,"INCLINATION":97.6927,"RA_OF_ASC_NODE":11.466,"ARG_OF_PERICENTER":183.7686,"MEAN_ANOMALY":176.3516,"EPHEMERIS_TYPE":0,"CLASSIFICATION_TYPE":"U","NORAD_CAT_ID":63262,"ELEMENT_SET_NO":999,"REV_AT_EPOCH":6112,"BSTAR":0.00059097032,"MEAN_MOTION_DOT":7.202e-5,"MEAN_MOTION_DDOT":0},{"OBJECT_NAME":"LEMUR-2-THEFALCONER","OBJECT_ID":"2025-052BG","EPOCH":"2026-04-27T06:49:50.024928","MEAN_MOTION":14.97027012,"ECCENTRICITY":0.00023479,"INCLINATION":97.6914,"RA_OF_ASC_NODE":10.4931,"ARG_OF_PERICENTER":136.353,"MEAN_ANOMALY":223.7877,"EPHEMERIS_TYPE":0,"CLASSIFICATION_TYPE":"U","NORAD_CAT_ID":63264,"ELEMENT_SET_NO":999,"REV_AT_EPOCH":6107,"BSTAR":0.00040431619,"MEAN_MOTION_DOT":4.599e-5,"MEAN_MOTION_DDOT":0},{"OBJECT_NAME":"LEMUR-2-UNTITLED-SC","OBJECT_ID":"2025-061A","EPOCH":"2026-04-27T05:45:37.808352","MEAN_MOTION":15.13103678,"ECCENTRICITY":0.00208341,"INCLINATION":97.5606,"RA_OF_ASC_NODE":92.9987,"ARG_OF_PERICENTER":81.7341,"MEAN_ANOMALY":278.6251,"EPHEMERIS_TYPE":0,"CLASSIFICATION_TYPE":"U","NORAD_CAT_ID":63351,"ELEMENT_SET_NO":999,"REV_AT_EPOCH":5988,"BSTAR":0.00025682,"MEAN_MOTION_DOT":4.504e-5,"MEAN_MOTION_DDOT":0},{"OBJECT_NAME":"LEMUR-2-ESPERANZA","OBJECT_ID":"2025-061B","EPOCH":"2026-04-26T21:21:01.960128","MEAN_MOTION":15.13186313,"ECCENTRICITY":0.0020346,"INCLINATION":97.5612,"RA_OF_ASC_NODE":92.7328,"ARG_OF_PERICENTER":82.2369,"MEAN_ANOMALY":278.1171,"EPHEMERIS_TYPE":0,"CLASSIFICATION_TYPE":"U","NORAD_CAT_ID":63352,"ELEMENT_SET_NO":999,"REV_AT_EPOCH":5983,"BSTAR":0.00025598,"MEAN_MOTION_DOT":4.498e-5,"MEAN_MOTION_DDOT":0},{"OBJECT_NAME":"LEMUR-2-KREMPEL-BRO2","OBJECT_ID":"2025-061C","EPOCH":"2026-04-27T04:41:39.221376","MEAN_MOTION":15.136163,"ECCENTRICITY":0.002128,"INCLINATION":97.5661,"RA_OF_ASC_NODE":93.5048,"ARG_OF_PERICENTER":74.4782,"MEAN_ANOMALY":285.8797,"EPHEMERIS_TYPE":0,"CLASSIFICATION_TYPE":"U","NORAD_CAT_ID":63353,"ELEMENT_SET_NO":999,"REV_AT_EPOCH":5989,"BSTAR":0.000281859,"MEAN_MOTION_DOT":5.023e-5,"MEAN_MOTION_DDOT":0},{"OBJECT_NAME":"LEMUR-2-THERMORAPTOR","OBJECT_ID":"2025-061D","EPOCH":"2026-04-27T04:19:26.141952","MEAN_MOTION":15.13685376,"ECCENTRICITY":0.00210325,"INCLINATION":97.5667,"RA_OF_ASC_NODE":93.5557,"ARG_OF_PERICENTER":73.7051,"MEAN_ANOMALY":286.6492,"EPHEMERIS_TYPE":0,"CLASSIFICATION_TYPE":"U","NORAD_CAT_ID":63354,"ELEMENT_SET_NO":999,"REV_AT_EPOCH":5989,"BSTAR":0.000271355,"MEAN_MOTION_DOT":4.842e-5,"MEAN_MOTION_DDOT":0},{"OBJECT_NAME":"LEMUR-2-NEUROSPICY","OBJECT_ID":"2025-061E","EPOCH":"2026-04-26T21:23:24.184032","MEAN_MOTION":15.13795194,"ECCENTRICITY":0.0018825,"INCLINATION":97.5592,"RA_OF_ASC_NODE":92.9349,"ARG_OF_PERICENTER":77.9964,"MEAN_ANOMALY":282.3376,"EPHEMERIS_TYPE":0,"CLASSIFICATION_TYPE":"U","NORAD_CAT_ID":63355,"ELEMENT_SET_NO":999,"REV_AT_EPOCH":5985,"BSTAR":0.00027549,"MEAN_MOTION_DOT":4.927e-5,"MEAN_MOTION_DDOT":0},{"OBJECT_NAME":"LEMUR-2-TILLINFINITY","OBJECT_ID":"2025-061F","EPOCH":"2026-04-26T21:07:42.354048","MEAN_MOTION":15.14379022,"ECCENTRICITY":0.0019931,"INCLINATION":97.5579,"RA_OF_ASC_NODE":93.1785,"ARG_OF_PERICENTER":67.2209,"MEAN_ANOMALY":293.1125,"EPHEMERIS_TYPE":0,"CLASSIFICATION_TYPE":"U","NORAD_CAT_ID":63356,"ELEMENT_SET_NO":999,"REV_AT_EPOCH":5987,"BSTAR":0.0002959,"MEAN_MOTION_DOT":5.388e-5,"MEAN_MOTION_DDOT":0},{"OBJECT_NAME":"LEMUR-2-KREMPEL-BRO1","OBJECT_ID":"2025-061G","EPOCH":"2026-04-27T04:15:51.956352","MEAN_MOTION":15.14195763,"ECCENTRICITY":0.00206321,"INCLINATION":97.5578,"RA_OF_ASC_NODE":93.4039,"ARG_OF_PERICENTER":67.3683,"MEAN_ANOMALY":292.9728,"EPHEMERIS_TYPE":0,"CLASSIFICATION_TYPE":"U","NORAD_CAT_ID":63357,"ELEMENT_SET_NO":999,"REV_AT_EPOCH":5991,"BSTAR":0.00026057526,"MEAN_MOTION_DOT":4.714e-5,"MEAN_MOTION_DDOT":0}]
